[{"OBJECT_NAME":"TIANMU-1 14","OBJECT_ID":"2023-205D","EPOCH":"2026-03-09T23:38:37.144032","MEAN_MOTION":15.2583937,"ECCENTRICITY":0.00072842,"INCLINATION":97.35,"RA_OF_ASC_NODE":91.4174,"ARG_OF_PERICENTER":335.7472,"MEAN_ANOMALY":24.3423,"EPHEMERIS_TYPE":0,"CLASSIFICATION_TYPE":"U","NORAD_CAT_ID":58648,"ELEMENT_SET_NO":999,"REV_AT_EPOCH":12237,"BSTAR":0.00030290643,"MEAN_MOTION_DOT":7.686e-5,"MEAN_MOTION_DDOT":0},{"OBJECT_NAME":"STARLINK-31203","OBJECT_ID":"2024-019S","EPOCH":"2026-03-09T13:20:33.833760","MEAN_MOTION":15.27575211,"ECCENTRICITY":0.00014601,"INCLINATION":43.0003,"RA_OF_ASC_NODE":246.0511,"ARG_OF_PERICENTER":234.9136,"MEAN_ANOMALY":125.1579,"EPHEMERIS_TYPE":0,"CLASSIFICATION_TYPE":"U","NORAD_CAT_ID":58869,"ELEMENT_SET_NO":999,"REV_AT_EPOCH":11910,"BSTAR":2.3978092e-5,"MEAN_MOTION_DOT":3.98e-6,"MEAN_MOTION_DDOT":0}]
